SENTINEL-3A             
1 41335U 16011A   26186.16981874  .00000160  00000+0  84197-4 0  9991
2 41335  98.6241 253.2946 0001423  93.4210 266.7134 14.26737992540624
SENTINEL-3B             
1 43437U 18039A   26186.21308142  .00000164  00000+0  85603-4 0  9992
2 43437  98.6240 253.4861 0000920 117.0798 243.0476 14.26740289426691
